[{"OBJECT_NAME":"ONEWEB-0183","OBJECT_ID":"2021-031K","EPOCH":"2026-03-02T16:52:09.276096","MEAN_MOTION":13.14501355,"ECCENTRICITY":0.0001654,"INCLINATION":87.9002,"RA_OF_ASC_NODE":310.9511,"ARG_OF_PERICENTER":72.3408,"MEAN_ANOMALY":287.7902,"EPHEMERIS_TYPE":0,"CLASSIFICATION_TYPE":"U","NORAD_CAT_ID":48219,"ELEMENT_SET_NO":999,"REV_AT_EPOCH":23433,"BSTAR":-0.00022988,"MEAN_MOTION_DOT":-7.2e-7,"MEAN_MOTION_DDOT":0},{"OBJECT_NAME":"ONEWEB-0185","OBJECT_ID":"2021-031L","EPOCH":"2026-03-02T17:29:49.275456","MEAN_MOTION":13.14502041,"ECCENTRICITY":0.0001943,"INCLINATION":87.8997,"RA_OF_ASC_NODE":310.9314,"ARG_OF_PERICENTER":70.2131,"MEAN_ANOMALY":289.9208,"EPHEMERIS_TYPE":0,"CLASSIFICATION_TYPE":"U","NORAD_CAT_ID":48220,"ELEMENT_SET_NO":999,"REV_AT_EPOCH":23426,"BSTAR":-0.00065625,"MEAN_MOTION_DOT":-2.31e-6,"MEAN_MOTION_DDOT":0},{"OBJECT_NAME":"ONEWEB-0187","OBJECT_ID":"2021-031M","EPOCH":"2026-03-02T17:01:05.449440","MEAN_MOTION":13.14501161,"ECCENTRICITY":0.0001919,"INCLINATION":87.899,"RA_OF_ASC_NODE":310.9681,"ARG_OF_PERICENTER":77.4751,"MEAN_ANOMALY":282.6594,"EPHEMERIS_TYPE":0,"CLASSIFICATION_TYPE":"U","NORAD_CAT_ID":48221,"ELEMENT_SET_NO":999,"REV_AT_EPOCH":23427,"BSTAR":-0.00048563,"MEAN_MOTION_DOT":-1.67e-6,"MEAN_MOTION_DDOT":0},{"OBJECT_NAME":"ONEWEB-0192","OBJECT_ID":"2021-031N","EPOCH":"2026-03-02T18:07:31.033056","MEAN_MOTION":13.14501222,"ECCENTRICITY":0.0001708,"INCLINATION":87.8988,"RA_OF_ASC_NODE":310.9481,"ARG_OF_PERICENTER":82.4434,"MEAN_ANOMALY":277.689,"EPHEMERIS_TYPE":0,"CLASSIFICATION_TYPE":"U","NORAD_CAT_ID":48222,"ELEMENT_SET_NO":999,"REV_AT_EPOCH":23419,"BSTAR":0.000532,"MEAN_MOTION_DOT":2.1e-6,"MEAN_MOTION_DDOT":0},{"OBJECT_NAME":"ONEWEB-0219","OBJECT_ID":"2021-031P","EPOCH":"2026-03-02T17:37:49.894464","MEAN_MOTION":13.14502467,"ECCENTRICITY":0.0001884,"INCLINATION":87.8999,"RA_OF_ASC_NODE":310.9365,"ARG_OF_PERICENTER":75.7547,"MEAN_ANOMALY":284.3792,"EPHEMERIS_TYPE":0,"CLASSIFICATION_TYPE":"U","NORAD_CAT_ID":48223,"ELEMENT_SET_NO":999,"REV_AT_EPOCH":23439,"BSTAR":7.5727e-5,"MEAN_MOTION_DOT":4.1e-7,"MEAN_MOTION_DDOT":0},{"OBJECT_NAME":"ONEWEB-0202","OBJECT_ID":"2021-031Q","EPOCH":"2026-03-02T17:10:26.352192","MEAN_MOTION":13.14505023,"ECCENTRICITY":0.0002175,"INCLINATION":87.8999,"RA_OF_ASC_NODE":310.9491,"ARG_OF_PERICENTER":95.8898,"MEAN_ANOMALY":264.248,"EPHEMERIS_TYPE":0,"CLASSIFICATION_TYPE":"U","NORAD_CAT_ID":48224,"ELEMENT_SET_NO":999,"REV_AT_EPOCH":23437,"BSTAR":-0.00050145,"MEAN_MOTION_DOT":-1.73e-6,"MEAN_MOTION_DDOT":0},{"OBJECT_NAME":"ONEWEB-0204","OBJECT_ID":"2021-031R","EPOCH":"2026-03-02T17:59:31.761888","MEAN_MOTION":13.14502314,"ECCENTRICITY":0.000164,"INCLINATION":87.9001,"RA_OF_ASC_NODE":310.9361,"ARG_OF_PERICENTER":69.3692,"MEAN_ANOMALY":290.7613,"EPHEMERIS_TYPE":0,"CLASSIFICATION_TYPE":"U","NORAD_CAT_ID":48225,"ELEMENT_SET_NO":999,"REV_AT_EPOCH":23427,"BSTAR":0.00067504,"MEAN_MOTION_DOT":2.63e-6,"MEAN_MOTION_DDOT":0},{"OBJECT_NAME":"ONEWEB-0205","OBJECT_ID":"2021-031S","EPOCH":"2026-03-02T17:24:07.848576","MEAN_MOTION":13.14502295,"ECCENTRICITY":0.0001844,"INCLINATION":87.9002,"RA_OF_ASC_NODE":310.9335,"ARG_OF_PERICENTER":76.8179,"MEAN_ANOMALY":283.3156,"EPHEMERIS_TYPE":0,"CLASSIFICATION_TYPE":"U","NORAD_CAT_ID":48226,"ELEMENT_SET_NO":999,"REV_AT_EPOCH":23428,"BSTAR":-0.0003807,"MEAN_MOTION_DOT":-1.28e-6,"MEAN_MOTION_DDOT":0},{"OBJECT_NAME":"ONEWEB-0206","OBJECT_ID":"2021-031T","EPOCH":"2026-03-02T16:45:18.858816","MEAN_MOTION":13.14502215,"ECCENTRICITY":0.0001463,"INCLINATION":87.9011,"RA_OF_ASC_NODE":310.938,"ARG_OF_PERICENTER":85.4675,"MEAN_ANOMALY":274.6622,"EPHEMERIS_TYPE":0,"CLASSIFICATION_TYPE":"U","NORAD_CAT_ID":48227,"ELEMENT_SET_NO":999,"REV_AT_EPOCH":23423,"BSTAR":3.2781e-6,"MEAN_MOTION_DOT":1.4e-7,"MEAN_MOTION_DDOT":0},{"OBJECT_NAME":"ONEWEB-0182","OBJECT_ID":"2021-031U","EPOCH":"2026-03-02T18:28:04.000800","MEAN_MOTION":13.1450131,"ECCENTRICITY":0.0001601,"INCLINATION":87.8998,"RA_OF_ASC_NODE":310.9376,"ARG_OF_PERICENTER":71.3849,"MEAN_ANOMALY":288.7455,"EPHEMERIS_TYPE":0,"CLASSIFICATION_TYPE":"U","NORAD_CAT_ID":48228,"ELEMENT_SET_NO":999,"REV_AT_EPOCH":23445,"BSTAR":0.00023433,"MEAN_MOTION_DOT":1.0e-6,"MEAN_MOTION_DDOT":0},{"OBJECT_NAME":"ONEWEB-0186","OBJECT_ID":"2021-031V","EPOCH":"2026-03-02T16:54:26.872416","MEAN_MOTION":13.14502336,"ECCENTRICITY":0.000179,"INCLINATION":87.9004,"RA_OF_ASC_NODE":310.9374,"ARG_OF_PERICENTER":79.0736,"MEAN_ANOMALY":281.0595,"EPHEMERIS_TYPE":0,"CLASSIFICATION_TYPE":"U","NORAD_CAT_ID":48229,"ELEMENT_SET_NO":999,"REV_AT_EPOCH":23439,"BSTAR":-0.00026967,"MEAN_MOTION_DOT":-8.7e-7,"MEAN_MOTION_DDOT":0},{"OBJECT_NAME":"ONEWEB-0181","OBJECT_ID":"2021-031W","EPOCH":"2026-03-02T18:12:05.069664","MEAN_MOTION":13.14501214,"ECCENTRICITY":0.0001839,"INCLINATION":87.8989,"RA_OF_ASC_NODE":310.9692,"ARG_OF_PERICENTER":81.4502,"MEAN_ANOMALY":278.6836,"EPHEMERIS_TYPE":0,"CLASSIFICATION_TYPE":"U","NORAD_CAT_ID":48230,"ELEMENT_SET_NO":999,"REV_AT_EPOCH":23425,"BSTAR":0.00059742,"MEAN_MOTION_DOT":2.34e-6,"MEAN_MOTION_DDOT":0},{"OBJECT_NAME":"ONEWEB-0188","OBJECT_ID":"2021-031X","EPOCH":"2026-03-02T17:17:16.604448","MEAN_MOTION":13.14501722,"ECCENTRICITY":0.0001717,"INCLINATION":87.899,"RA_OF_ASC_NODE":310.9746,"ARG_OF_PERICENTER":78.2108,"MEAN_ANOMALY":281.9214,"EPHEMERIS_TYPE":0,"CLASSIFICATION_TYPE":"U","NORAD_CAT_ID":48231,"ELEMENT_SET_NO":999,"REV_AT_EPOCH":23415,"BSTAR":-0.00030072,"MEAN_MOTION_DOT":-9.9e-7,"MEAN_MOTION_DDOT":0},{"OBJECT_NAME":"ONEWEB-0220","OBJECT_ID":"2021-031Y","EPOCH":"2026-03-02T16:24:45.427104","MEAN_MOTION":13.14501385,"ECCENTRICITY":0.0001855,"INCLINATION":87.9006,"RA_OF_ASC_NODE":310.9404,"ARG_OF_PERICENTER":76.9894,"MEAN_ANOMALY":283.1443,"EPHEMERIS_TYPE":0,"CLASSIFICATION_TYPE":"U","NORAD_CAT_ID":48232,"ELEMENT_SET_NO":999,"REV_AT_EPOCH":23441,"BSTAR":0.00074134,"MEAN_MOTION_DOT":2.88e-6,"MEAN_MOTION_DDOT":0},{"OBJECT_NAME":"ONEWEB-0165","OBJECT_ID":"2021-031Z","EPOCH":"2026-03-02T17:05:51.422208","MEAN_MOTION":13.1450156,"ECCENTRICITY":0.0001941,"INCLINATION":87.9,"RA_OF_ASC_NODE":310.9517,"ARG_OF_PERICENTER":86.7004,"MEAN_ANOMALY":273.4347,"EPHEMERIS_TYPE":0,"CLASSIFICATION_TYPE":"U","NORAD_CAT_ID":48233,"ELEMENT_SET_NO":999,"REV_AT_EPOCH":23437,"BSTAR":-0.00048458,"MEAN_MOTION_DOT":-1.67e-6,"MEAN_MOTION_DDOT":0},{"OBJECT_NAME":"ONEWEB-0199","OBJECT_ID":"2021-031AA","EPOCH":"2026-03-02T16:43:01.203744","MEAN_MOTION":13.14500852,"ECCENTRICITY":0.0001511,"INCLINATION":87.9002,"RA_OF_ASC_NODE":310.9368,"ARG_OF_PERICENTER":81.0899,"MEAN_ANOMALY":279.0402,"EPHEMERIS_TYPE":0,"CLASSIFICATION_TYPE":"U","NORAD_CAT_ID":48234,"ELEMENT_SET_NO":999,"REV_AT_EPOCH":23427,"BSTAR":7.0447e-5,"MEAN_MOTION_DOT":3.9e-7,"MEAN_MOTION_DDOT":0},{"OBJECT_NAME":"ONEWEB-0203","OBJECT_ID":"2021-031AB","EPOCH":"2026-03-02T18:18:54.843264","MEAN_MOTION":13.14498351,"ECCENTRICITY":0.000158,"INCLINATION":87.9007,"RA_OF_ASC_NODE":310.9225,"ARG_OF_PERICENTER":85.6278,"MEAN_ANOMALY":274.5032,"EPHEMERIS_TYPE":0,"CLASSIFICATION_TYPE":"U","NORAD_CAT_ID":48235,"ELEMENT_SET_NO":999,"REV_AT_EPOCH":23429,"BSTAR":7.2268e-5,"MEAN_MOTION_DOT":4.0e-7,"MEAN_MOTION_DDOT":0}]
