ONEWEB-0183             
1 48219U 21031K   26061.70288514 -.00000072  00000+0 -22988-3 0  9993
2 48219  87.9002 310.9511 0001654  72.3408 287.7902 13.14501355234330
ONEWEB-0185             
1 48220U 21031L   26061.72904254 -.00000231  00000+0 -65625-3 0  9995
2 48220  87.8997 310.9314 0001943  70.2131 289.9208 13.14502041234264
ONEWEB-0187             
1 48221U 21031M   26061.70909085 -.00000167  00000+0 -48563-3 0  9991
2 48221  87.8990 310.9681 0001919  77.4751 282.6594 13.14501161234276
ONEWEB-0192             
1 48222U 21031N   26061.75522029  .00000210  00000+0  53200-3 0  9997
2 48222  87.8988 310.9481 0001708  82.4434 277.6890 13.14501222234194
ONEWEB-0219             
1 48223U 21031P   26061.73460526  .00000041  00000+0  75727-4 0  9990
2 48223  87.8999 310.9365 0001884  75.7547 284.3792 13.14502467234393
ONEWEB-0202             
1 48224U 21031Q   26061.71558278 -.00000173  00000+0 -50145-3 0  9995
2 48224  87.8999 310.9491 0002175  95.8898 264.2480 13.14505023234370
ONEWEB-0204             
1 48225U 21031R   26061.74967317  .00000263  00000+0  67504-3 0  9992
2 48225  87.9001 310.9361 0001640  69.3692 290.7613 13.14502314234277
ONEWEB-0205             
1 48226U 21031S   26061.72509084 -.00000128  00000+0 -38070-3 0  9992
2 48226  87.9002 310.9335 0001844  76.8179 283.3156 13.14502295234288
ONEWEB-0206             
1 48227U 21031T   26061.69813494  .00000014  00000+0  32781-5 0  9999
2 48227  87.9011 310.9380 0001463  85.4675 274.6622 13.14502215234231
ONEWEB-0182             
1 48228U 21031U   26061.76949075  .00000100  00000+0  23433-3 0  9991
2 48228  87.8998 310.9376 0001601  71.3849 288.7455 13.14501310234450
ONEWEB-0186             
1 48229U 21031V   26061.70447769 -.00000087  00000+0 -26967-3 0  9990
2 48229  87.9004 310.9374 0001790  79.0736 281.0595 13.14502336234390
ONEWEB-0181             
1 48230U 21031W   26061.75839201  .00000234  00000+0  59742-3 0  9992
2 48230  87.8989 310.9692 0001839  81.4502 278.6836 13.14501214234257
ONEWEB-0188             
1 48231U 21031X   26061.72033107 -.00000099  00000+0 -30072-3 0  9997
2 48231  87.8990 310.9746 0001717  78.2108 281.9214 13.14501722234151
ONEWEB-0220             
1 48232U 21031Y   26061.68385911  .00000288  00000+0  74134-3 0  9991
2 48232  87.9006 310.9404 0001855  76.9894 283.1443 13.14501385234414
ONEWEB-0165             
1 48233U 21031Z   26061.71240072 -.00000167  00000+0 -48458-3 0  9992
2 48233  87.9000 310.9517 0001941  86.7004 273.4347 13.14501560234377
ONEWEB-0199             
1 48234U 21031AA  26061.69654171  .00000039  00000+0  70447-4 0  9999
2 48234  87.9002 310.9368 0001511  81.0899 279.0402 13.14500852234273
ONEWEB-0203             
1 48235U 21031AB  26061.76313476  .00000040  00000+0  72268-4 0  9993
2 48235  87.9007 310.9225 0001580  85.6278 274.5032 13.14498351234299
